{"fetched_at":"2026-07-17T17:37:53.421Z","source":"https://celestrak.org/NORAD/elements/gp.php?GROUP=oneweb&FORMAT=JSON","constellation":"oneweb","records":[{"OBJECT_NAME":"ONEWEB-0674","OBJECT_ID":"2023-029AP","EPOCH":"2026-07-16T18:58:09.883488","CLASSIFICATION_TYPE":"U","MEAN_MOTION":13.14500967,"ECCENTRICITY":0.00016507,"INCLINATION":87.8964,"RA_OF_ASC_NODE":283.8171,"ARG_OF_PERICENTER":105.0204,"MEAN_ANOMALY":255.1108,"EPHEMERIS_TYPE":0,"NORAD_CAT_ID":55833,"ELEMENT_SET_NO":999,"REV_AT_EPOCH":16330,"BSTAR":-0.00024516884,"MEAN_MOTION_DOT":-7.8e-7,"MEAN_MOTION_DDOT":0},{"OBJECT_NAME":"ONEWEB-0675","OBJECT_ID":"2023-029AQ","EPOCH":"2026-07-17T05:32:12.232896","CLASSIFICATION_TYPE":"U","MEAN_MOTION":13.19724083,"ECCENTRICITY":0.00022448,"INCLINATION":87.9188,"RA_OF_ASC_NODE":298.9949,"ARG_OF_PERICENTER":95.8485,"MEAN_ANOMALY":264.2903,"EPHEMERIS_TYPE":0,"NORAD_CAT_ID":55834,"ELEMENT_SET_NO":999,"REV_AT_EPOCH":16288,"BSTAR":0.00012421255,"MEAN_MOTION_DOT":6.3e-7,"MEAN_MOTION_DDOT":0},{"OBJECT_NAME":"ONEWEB-0720","OBJECT_ID":"2023-029AR","EPOCH":"2026-07-16T20:14:56.488704","CLASSIFICATION_TYPE":"U","MEAN_MOTION":13.19726484,"ECCENTRICITY":0.00021933,"INCLINATION":87.9184,"RA_OF_ASC_NODE":299.0713,"ARG_OF_PERICENTER":107.333,"MEAN_ANOMALY":252.8043,"EPHEMERIS_TYPE":0,"NORAD_CAT_ID":55835,"ELEMENT_SET_NO":999,"REV_AT_EPOCH":16275,"BSTAR":0.00015667273,"MEAN_MOTION_DOT":7.6e-7,"MEAN_MOTION_DDOT":0},{"OBJECT_NAME":"ONEWEB-0537","OBJECT_ID":"2023-043A","EPOCH":"2026-07-16T14:31:48.906624","CLASSIFICATION_TYPE":"U","MEAN_MOTION":13.16594381,"ECCENTRICITY":0.00021455,"INCLINATION":87.9078,"RA_OF_ASC_NODE":222.9278,"ARG_OF_PERICENTER":87.9193,"MEAN_ANOMALY":272.2184,"EPHEMERIS_TYPE":0,"NORAD_CAT_ID":56046,"ELEMENT_SET_NO":999,"REV_AT_EPOCH":16283,"BSTAR":0.00033085316,"MEAN_MOTION_DOT":0.00000139,"MEAN_MOTION_DDOT":0},{"OBJECT_NAME":"ONEWEB-0538","OBJECT_ID":"2023-043B","EPOCH":"2026-07-17T01:19:18.336576","CLASSIFICATION_TYPE":"U","MEAN_MOTION":13.16593887,"ECCENTRICITY":0.00023215,"INCLINATION":87.9077,"RA_OF_ASC_NODE":222.8412,"ARG_OF_PERICENTER":93.6007,"MEAN_ANOMALY":266.539,"EPHEMERIS_TYPE":0,"NORAD_CAT_ID":56047,"ELEMENT_SET_NO":999,"REV_AT_EPOCH":16290,"BSTAR":0.0002105334,"MEAN_MOTION_DOT":9.3e-7,"MEAN_MOTION_DDOT":0},{"OBJECT_NAME":"ONEWEB-0546","OBJECT_ID":"2023-043C","EPOCH":"2026-07-17T01:01:03.976032","CLASSIFICATION_TYPE":"U","MEAN_MOTION":13.16593866,"ECCENTRICITY":0.00022565,"INCLINATION":87.9078,"RA_OF_ASC_NODE":222.8439,"ARG_OF_PERICENTER":75.9471,"MEAN_ANOMALY":284.191,"EPHEMERIS_TYPE":0,"NORAD_CAT_ID":56048,"ELEMENT_SET_NO":999,"REV_AT_EPOCH":16289,"BSTAR":0.000045558111,"MEAN_MOTION_DOT":3e-7,"MEAN_MOTION_DDOT":0},{"OBJECT_NAME":"ONEWEB-0547","OBJECT_ID":"2023-043D","EPOCH":"2026-07-17T01:44:23.952480","CLASSIFICATION_TYPE":"U","MEAN_MOTION":13.21827307,"ECCENTRICITY":0.00022418,"INCLINATION":87.9236,"RA_OF_ASC_NODE":238.0273,"ARG_OF_PERICENTER":98.6698,"MEAN_ANOMALY":261.469,"EPHEMERIS_TYPE":0,"NORAD_CAT_ID":56049,"ELEMENT_SET_NO":999,"REV_AT_EPOCH":16217,"BSTAR":0.00010179699,"MEAN_MOTION_DOT":5.5e-7,"MEAN_MOTION_DDOT":0},{"OBJECT_NAME":"ONEWEB-0548","OBJECT_ID":"2023-043E","EPOCH":"2026-07-17T07:04:41.742048","CLASSIFICATION_TYPE":"U","MEAN_MOTION":13.16594971,"ECCENTRICITY":0.00015951,"INCLINATION":87.9078,"RA_OF_ASC_NODE":222.7892,"ARG_OF_PERICENTER":93.7295,"MEAN_ANOMALY":266.4018,"EPHEMERIS_TYPE":0,"NORAD_CAT_ID":56050,"ELEMENT_SET_NO":999,"REV_AT_EPOCH":16292,"BSTAR":0.00018472542,"MEAN_MOTION_DOT":8.3e-7,"MEAN_MOTION_DDOT":0},{"OBJECT_NAME":"ONEWEB-0549","OBJECT_ID":"2023-043F","EPOCH":"2026-07-17T01:35:55.674240","CLASSIFICATION_TYPE":"U","MEAN_MOTION":13.21827529,"ECCENTRICITY":0.00024847,"INCLINATION":87.9229,"RA_OF_ASC_NODE":238.0334,"ARG_OF_PERICENTER":96.0827,"MEAN_ANOMALY":264.059,"EPHEMERIS_TYPE":0,"NORAD_CAT_ID":56051,"ELEMENT_SET_NO":999,"REV_AT_EPOCH":16217,"BSTAR":0.00016111759,"MEAN_MOTION_DOT":8e-7,"MEAN_MOTION_DDOT":0},{"OBJECT_NAME":"ONEWEB-0550","OBJECT_ID":"2023-043G","EPOCH":"2026-07-17T01:16:33.893184","CLASSIFICATION_TYPE":"U","MEAN_MOTION":13.21827235,"ECCENTRICITY":0.00018908,"INCLINATION":87.9232,"RA_OF_ASC_NODE":238.0343,"ARG_OF_PERICENTER":98.477,"MEAN_ANOMALY":261.6578,"EPHEMERIS_TYPE":0,"NORAD_CAT_ID":56052,"ELEMENT_SET_NO":999,"REV_AT_EPOCH":16217,"BSTAR":0.00023085204,"MEAN_MOTION_DOT":0.00000108,"MEAN_MOTION_DDOT":0},{"OBJECT_NAME":"ONEWEB-0551","OBJECT_ID":"2023-043H","EPOCH":"2026-07-17T02:55:25.940064","CLASSIFICATION_TYPE":"U","MEAN_MOTION":13.15547483,"ECCENTRICITY":0.00024247,"INCLINATION":87.8977,"RA_OF_ASC_NODE":253.2619,"ARG_OF_PERICENTER":101.392,"MEAN_ANOMALY":258.7483,"EPHEMERIS_TYPE":0,"NORAD_CAT_ID":56053,"ELEMENT_SET_NO":999,"REV_AT_EPOCH":16033,"BSTAR":0.00009744203,"MEAN_MOTION_DOT":5e-7,"MEAN_MOTION_DDOT":0},{"OBJECT_NAME":"ONEWEB-0552","OBJECT_ID":"2023-043J","EPOCH":"2026-07-17T01:09:16.829280","CLASSIFICATION_TYPE":"U","MEAN_MOTION":13.21826633,"ECCENTRICITY":0.00021167,"INCLINATION":87.923,"RA_OF_ASC_NODE":238.0398,"ARG_OF_PERICENTER":101.9982,"MEAN_ANOMALY":258.139,"EPHEMERIS_TYPE":0,"NORAD_CAT_ID":56054,"ELEMENT_SET_NO":999,"REV_AT_EPOCH":16217,"BSTAR":0.00011415894,"MEAN_MOTION_DOT":6e-7,"MEAN_MOTION_DDOT":0},{"OBJECT_NAME":"ONEWEB-0553","OBJECT_ID":"2023-043K","EPOCH":"2026-07-17T01:10:11.105760","CLASSIFICATION_TYPE":"U","MEAN_MOTION":13.16593846,"ECCENTRICITY":0.00020223,"INCLINATION":87.9075,"RA_OF_ASC_NODE":222.8427,"ARG_OF_PERICENTER":83.2615,"MEAN_ANOMALY":276.8746,"EPHEMERIS_TYPE":0,"NORAD_CAT_ID":56055,"ELEMENT_SET_NO":999,"REV_AT_EPOCH":16290,"BSTAR":0.00019517043,"MEAN_MOTION_DOT":8.7e-7,"MEAN_MOTION_DDOT":0},{"OBJECT_NAME":"ONEWEB-0554","OBJECT_ID":"2023-043L","EPOCH":"2026-07-17T00:51:56.933568","CLASSIFICATION_TYPE":"U","MEAN_MOTION":13.16593846,"ECCENTRICITY":0.0001524,"INCLINATION":87.9073,"RA_OF_ASC_NODE":222.8539,"ARG_OF_PERICENTER":94.8511,"MEAN_ANOMALY":265.2794,"EPHEMERIS_TYPE":0,"NORAD_CAT_ID":56056,"ELEMENT_SET_NO":999,"REV_AT_EPOCH":16288,"BSTAR":-0.000014639273,"MEAN_MOTION_DOT":7e-8,"MEAN_MOTION_DDOT":0},{"OBJECT_NAME":"ONEWEB-0555","OBJECT_ID":"2023-043M","EPOCH":"2026-07-17T01:46:39.428544","CLASSIFICATION_TYPE":"U","MEAN_MOTION":13.1659439,"ECCENTRICITY":0.00021485,"INCLINATION":87.908,"RA_OF_ASC_NODE":222.8349,"ARG_OF_PERICENTER":78.8174,"MEAN_ANOMALY":281.3199,"EPHEMERIS_TYPE":0,"NORAD_CAT_ID":56057,"ELEMENT_SET_NO":999,"REV_AT_EPOCH":16289,"BSTAR":0.000065639984,"MEAN_MOTION_DOT":3.8e-7,"MEAN_MOTION_DDOT":0},{"OBJECT_NAME":"ONEWEB-0557","OBJECT_ID":"2023-043N","EPOCH":"2026-07-17T00:17:44.454048","CLASSIFICATION_TYPE":"U","MEAN_MOTION":13.16594237,"ECCENTRICITY":0.00012087,"INCLINATION":87.9078,"RA_OF_ASC_NODE":222.8571,"ARG_OF_PERICENTER":58.0189,"MEAN_ANOMALY":302.1059,"EPHEMERIS_TYPE":0,"NORAD_CAT_ID":56058,"ELEMENT_SET_NO":999,"REV_AT_EPOCH":16288,"BSTAR":-0.000063086292,"MEAN_MOTION_DOT":-1.1e-7,"MEAN_MOTION_DDOT":0}]}
