ONEWEB-0674             
1 55833U 23029AP  26197.79039217 -.00000078  00000+0 -24517-3 0  9991
2 55833  87.8964 283.8171 0001650 105.0204 255.1108 13.14500967163303
ONEWEB-0675             
1 55834U 23029AQ  26198.23069714  .00000063  00000+0  12421-3 0  9990
2 55834  87.9188 298.9949 0002244  95.8485 264.2903 13.19724083162888
ONEWEB-0720             
1 55835U 23029AR  26197.84370936  .00000076  00000+0  15667-3 0  9997
2 55835  87.9184 299.0713 0002193 107.3330 252.8043 13.19726484162758
ONEWEB-0537             
1 56046U 23043A   26197.60542716  .00000139  00000+0  33085-3 0  9993
2 56046  87.9078 222.9278 0002145  87.9193 272.2184 13.16594381162830
ONEWEB-0538             
1 56047U 23043B   26198.05507334  .00000093  00000+0  21053-3 0  9992
2 56047  87.9077 222.8412 0002321  93.6007 266.5390 13.16593887162906
ONEWEB-0546             
1 56048U 23043C   26198.04240713  .00000030  00000+0  45558-4 0  9995
2 56048  87.9078 222.8439 0002256  75.9471 284.1910 13.16593866162891
ONEWEB-0547             
1 56049U 23043D   26198.07249945  .00000055  00000+0  10180-3 0  9994
2 56049  87.9236 238.0273 0002241  98.6698 261.4690 13.21827307162170
ONEWEB-0548             
1 56050U 23043E   26198.29492757  .00000083  00000+0  18473-3 0  9995
2 56050  87.9078 222.7892 0001595  93.7295 266.4018 13.16594971162927
ONEWEB-0549             
1 56051U 23043F   26198.06661660  .00000080  00000+0  16112-3 0  9997
2 56051  87.9229 238.0334 0002484  96.0827 264.0590 13.21827529162172
ONEWEB-0550             
1 56052U 23043G   26198.05317006  .00000108  00000+0  23085-3 0  9997
2 56052  87.9232 238.0343 0001890  98.4770 261.6578 13.21827235162173
ONEWEB-0551             
1 56053U 23043H   26198.12182801  .00000050  00000+0  97442-4 0  9994
2 56053  87.8977 253.2619 0002424 101.3920 258.7483 13.15547483160334
ONEWEB-0552             
1 56054U 23043J   26198.04811145  .00000060  00000+0  11416-3 0  9993
2 56054  87.9230 238.0398 0002116 101.9982 258.1390 13.21826633162174
ONEWEB-0553             
1 56055U 23043K   26198.04873965  .00000087  00000+0  19517-3 0  9991
2 56055  87.9075 222.8427 0002022  83.2615 276.8746 13.16593846162901
ONEWEB-0554             
1 56056U 23043L   26198.03607562  .00000007  00000+0 -14639-4 0  9993
2 56056  87.9073 222.8539 0001524  94.8511 265.2794 13.16593846162885
ONEWEB-0555             
1 56057U 23043M   26198.07406746  .00000038  00000+0  65640-4 0  9990
2 56057  87.9080 222.8349 0002148  78.8174 281.3199 13.16594390162897
ONEWEB-0557             
1 56058U 23043N   26198.01232007 -.00000011  00000+0 -63086-4 0  9997
2 56058  87.9078 222.8571 0001208  58.0189 302.1059 13.16594237162880
